[{"OBJECT_NAME":"SEEDS II (CO-66)","OBJECT_ID":"2008-021J","EPOCH":"2026-03-09T22:06:22.421376","MEAN_MOTION":15.29097236,"ECCENTRICITY":0.00014475,"INCLINATION":97.7519,"RA_OF_ASC_NODE":62.3611,"ARG_OF_PERICENTER":359.2618,"MEAN_ANOMALY":0.8619,"EPHEMERIS_TYPE":0,"CLASSIFICATION_TYPE":"U","NORAD_CAT_ID":32791,"ELEMENT_SET_NO":999,"REV_AT_EPOCH":97210,"BSTAR":0.00084213052,"MEAN_MOTION_DOT":0.00023758,"MEAN_MOTION_DDOT":0},{"OBJECT_NAME":"STARLINK-31848","OBJECT_ID":"2024-093C","EPOCH":"2026-03-09T09:57:19.658304","MEAN_MOTION":15.27561249,"ECCENTRICITY":0.00010998,"INCLINATION":43.0002,"RA_OF_ASC_NODE":206.9663,"ARG_OF_PERICENTER":289.2615,"MEAN_ANOMALY":70.8118,"EPHEMERIS_TYPE":0,"CLASSIFICATION_TYPE":"U","NORAD_CAT_ID":59784,"ELEMENT_SET_NO":999,"REV_AT_EPOCH":10269,"BSTAR":-6.495865e-6,"MEAN_MOTION_DOT":-4.41e-6,"MEAN_MOTION_DDOT":0}]
